{"fetched_at":"2026-07-13T18:16:35.050Z","source":"https://celestrak.org/NORAD/elements/gp.php?GROUP=qianfan&FORMAT=JSON","constellation":"qianfan","records":[{"OBJECT_NAME":"QIANFAN-1","OBJECT_ID":"2024-140A","EPOCH":"2026-07-13T06:05:52.361664","CLASSIFICATION_TYPE":"U","MEAN_MOTION":13.51019924,"ECCENTRICITY":0.00157645,"INCLINATION":88.9734,"RA_OF_ASC_NODE":277.2279,"ARG_OF_PERICENTER":326.6761,"MEAN_ANOMALY":33.3396,"EPHEMERIS_TYPE":0,"NORAD_CAT_ID":60379,"ELEMENT_SET_NO":999,"REV_AT_EPOCH":9604,"BSTAR":0.00012921533,"MEAN_MOTION_DOT":9.5e-7,"MEAN_MOTION_DDOT":0},{"OBJECT_NAME":"QIANFAN-2","OBJECT_ID":"2024-140B","EPOCH":"2026-07-13T06:47:27.057984","CLASSIFICATION_TYPE":"U","MEAN_MOTION":13.51015727,"ECCENTRICITY":0.00104475,"INCLINATION":88.972,"RA_OF_ASC_NODE":277.0353,"ARG_OF_PERICENTER":296.1274,"MEAN_ANOMALY":63.8802,"EPHEMERIS_TYPE":0,"NORAD_CAT_ID":60380,"ELEMENT_SET_NO":999,"REV_AT_EPOCH":9610,"BSTAR":0.00012228952,"MEAN_MOTION_DOT":9.1e-7,"MEAN_MOTION_DDOT":0},{"OBJECT_NAME":"QIANFAN-3","OBJECT_ID":"2024-140C","EPOCH":"2026-07-13T05:12:36.072288","CLASSIFICATION_TYPE":"U","MEAN_MOTION":13.51016726,"ECCENTRICITY":0.00117743,"INCLINATION":88.9713,"RA_OF_ASC_NODE":277.1586,"ARG_OF_PERICENTER":311.0702,"MEAN_ANOMALY":48.9432,"EPHEMERIS_TYPE":0,"NORAD_CAT_ID":60381,"ELEMENT_SET_NO":999,"REV_AT_EPOCH":9600,"BSTAR":0.00012495698,"MEAN_MOTION_DOT":9.3e-7,"MEAN_MOTION_DDOT":0},{"OBJECT_NAME":"QIANFAN-4","OBJECT_ID":"2024-140D","EPOCH":"2026-07-13T06:23:35.685600","CLASSIFICATION_TYPE":"U","MEAN_MOTION":13.51019742,"ECCENTRICITY":0.00107019,"INCLINATION":88.9738,"RA_OF_ASC_NODE":277.1047,"ARG_OF_PERICENTER":299.3179,"MEAN_ANOMALY":60.6902,"EPHEMERIS_TYPE":0,"NORAD_CAT_ID":60382,"ELEMENT_SET_NO":999,"REV_AT_EPOCH":9613,"BSTAR":0.00015306721,"MEAN_MOTION_DOT":0.00000111,"MEAN_MOTION_DDOT":0},{"OBJECT_NAME":"QIANFAN-5","OBJECT_ID":"2024-140E","EPOCH":"2026-07-13T07:34:46.380576","CLASSIFICATION_TYPE":"U","MEAN_MOTION":13.51010375,"ECCENTRICITY":0.0013303,"INCLINATION":88.9712,"RA_OF_ASC_NODE":277.173,"ARG_OF_PERICENTER":323.2492,"MEAN_ANOMALY":36.7746,"EPHEMERIS_TYPE":0,"NORAD_CAT_ID":60383,"ELEMENT_SET_NO":999,"REV_AT_EPOCH":9600,"BSTAR":0.000091381923,"MEAN_MOTION_DOT":7.1e-7,"MEAN_MOTION_DDOT":0},{"OBJECT_NAME":"QIANFAN-6","OBJECT_ID":"2024-140F","EPOCH":"2026-07-13T06:17:41.184672","CLASSIFICATION_TYPE":"U","MEAN_MOTION":13.51018549,"ECCENTRICITY":0.00109318,"INCLINATION":88.9739,"RA_OF_ASC_NODE":276.9824,"ARG_OF_PERICENTER":306.436,"MEAN_ANOMALY":53.5782,"EPHEMERIS_TYPE":0,"NORAD_CAT_ID":60384,"ELEMENT_SET_NO":999,"REV_AT_EPOCH":9619,"BSTAR":0.0001235179,"MEAN_MOTION_DOT":9.2e-7,"MEAN_MOTION_DDOT":0},{"OBJECT_NAME":"QIANFAN-7","OBJECT_ID":"2024-140G","EPOCH":"2026-07-13T05:44:22.909056","CLASSIFICATION_TYPE":"U","MEAN_MOTION":14.27863471,"ECCENTRICITY":0.00172213,"INCLINATION":88.9769,"RA_OF_ASC_NODE":268.7141,"ARG_OF_PERICENTER":67.22,"MEAN_ANOMALY":293.0811,"EPHEMERIS_TYPE":0,"NORAD_CAT_ID":60385,"ELEMENT_SET_NO":999,"REV_AT_EPOCH":10071,"BSTAR":0.0001203646,"MEAN_MOTION_DOT":0.00000313,"MEAN_MOTION_DDOT":0},{"OBJECT_NAME":"QIANFAN-8","OBJECT_ID":"2024-140H","EPOCH":"2026-07-13T06:29:36.209472","CLASSIFICATION_TYPE":"U","MEAN_MOTION":13.51014961,"ECCENTRICITY":0.00144246,"INCLINATION":88.9741,"RA_OF_ASC_NODE":277.2218,"ARG_OF_PERICENTER":307.8214,"MEAN_ANOMALY":52.1631,"EPHEMERIS_TYPE":0,"NORAD_CAT_ID":60386,"ELEMENT_SET_NO":999,"REV_AT_EPOCH":9604,"BSTAR":0.00012443541,"MEAN_MOTION_DOT":9.2e-7,"MEAN_MOTION_DDOT":0},{"OBJECT_NAME":"QIANFAN-9","OBJECT_ID":"2024-140J","EPOCH":"2026-07-13T05:53:55.836960","CLASSIFICATION_TYPE":"U","MEAN_MOTION":13.51020579,"ECCENTRICITY":0.0014096,"INCLINATION":88.9738,"RA_OF_ASC_NODE":277.2954,"ARG_OF_PERICENTER":307.6736,"MEAN_ANOMALY":52.3136,"EPHEMERIS_TYPE":0,"NORAD_CAT_ID":60387,"ELEMENT_SET_NO":999,"REV_AT_EPOCH":9602,"BSTAR":0.00011037912,"MEAN_MOTION_DOT":8.3e-7,"MEAN_MOTION_DDOT":0},{"OBJECT_NAME":"QIANFAN-10","OBJECT_ID":"2024-140K","EPOCH":"2026-07-13T05:59:52.054656","CLASSIFICATION_TYPE":"U","MEAN_MOTION":13.51021791,"ECCENTRICITY":0.00123239,"INCLINATION":88.9749,"RA_OF_ASC_NODE":276.6643,"ARG_OF_PERICENTER":281.3219,"MEAN_ANOMALY":78.6547,"EPHEMERIS_TYPE":0,"NORAD_CAT_ID":60388,"ELEMENT_SET_NO":999,"REV_AT_EPOCH":9615,"BSTAR":0.00014378569,"MEAN_MOTION_DOT":0.00000105,"MEAN_MOTION_DDOT":0},{"OBJECT_NAME":"QIANFAN-11","OBJECT_ID":"2024-140L","EPOCH":"2026-07-13T06:53:15.214560","CLASSIFICATION_TYPE":"U","MEAN_MOTION":13.51015728,"ECCENTRICITY":0.00121351,"INCLINATION":88.9674,"RA_OF_ASC_NODE":277.0877,"ARG_OF_PERICENTER":307.9125,"MEAN_ANOMALY":52.0928,"EPHEMERIS_TYPE":0,"NORAD_CAT_ID":60389,"ELEMENT_SET_NO":999,"REV_AT_EPOCH":9581,"BSTAR":0.00012522386,"MEAN_MOTION_DOT":9.3e-7,"MEAN_MOTION_DDOT":0},{"OBJECT_NAME":"QIANFAN-12","OBJECT_ID":"2024-140M","EPOCH":"2026-07-13T07:22:58.728288","CLASSIFICATION_TYPE":"U","MEAN_MOTION":13.51017943,"ECCENTRICITY":0.0011141,"INCLINATION":88.9717,"RA_OF_ASC_NODE":277.2216,"ARG_OF_PERICENTER":317.9673,"MEAN_ANOMALY":42.0622,"EPHEMERIS_TYPE":0,"NORAD_CAT_ID":60390,"ELEMENT_SET_NO":999,"REV_AT_EPOCH":9594,"BSTAR":0.00012228077,"MEAN_MOTION_DOT":9.1e-7,"MEAN_MOTION_DDOT":0},{"OBJECT_NAME":"QIANFAN-13","OBJECT_ID":"2024-140N","EPOCH":"2026-07-13T06:41:26.739744","CLASSIFICATION_TYPE":"U","MEAN_MOTION":13.51017985,"ECCENTRICITY":0.00110398,"INCLINATION":88.9729,"RA_OF_ASC_NODE":277.3502,"ARG_OF_PERICENTER":321.3397,"MEAN_ANOMALY":38.6963,"EPHEMERIS_TYPE":0,"NORAD_CAT_ID":60391,"ELEMENT_SET_NO":999,"REV_AT_EPOCH":9596,"BSTAR":0.00012186809,"MEAN_MOTION_DOT":9.1e-7,"MEAN_MOTION_DDOT":0},{"OBJECT_NAME":"QIANFAN-14","OBJECT_ID":"2024-140P","EPOCH":"2026-07-13T07:17:05.327232","CLASSIFICATION_TYPE":"U","MEAN_MOTION":13.5101152,"ECCENTRICITY":0.00146997,"INCLINATION":88.9708,"RA_OF_ASC_NODE":277.2003,"ARG_OF_PERICENTER":319.3466,"MEAN_ANOMALY":40.6587,"EPHEMERIS_TYPE":0,"NORAD_CAT_ID":60392,"ELEMENT_SET_NO":999,"REV_AT_EPOCH":9597,"BSTAR":0.00013119559,"MEAN_MOTION_DOT":9.7e-7,"MEAN_MOTION_DDOT":0},{"OBJECT_NAME":"QIANFAN-15","OBJECT_ID":"2024-140Q","EPOCH":"2026-07-13T05:42:11.661408","CLASSIFICATION_TYPE":"U","MEAN_MOTION":13.51012002,"ECCENTRICITY":0.00102071,"INCLINATION":88.9732,"RA_OF_ASC_NODE":277.2141,"ARG_OF_PERICENTER":305.283,"MEAN_ANOMALY":54.7365,"EPHEMERIS_TYPE":0,"NORAD_CAT_ID":60393,"ELEMENT_SET_NO":999,"REV_AT_EPOCH":9595,"BSTAR":0.00010992321,"MEAN_MOTION_DOT":8.3e-7,"MEAN_MOTION_DDOT":0},{"OBJECT_NAME":"QIANFAN-16","OBJECT_ID":"2024-140R","EPOCH":"2026-07-13T05:24:29.138400","CLASSIFICATION_TYPE":"U","MEAN_MOTION":13.5101991,"ECCENTRICITY":0.0012783,"INCLINATION":88.9735,"RA_OF_ASC_NODE":277.3416,"ARG_OF_PERICENTER":324.9461,"MEAN_ANOMALY":35.0847,"EPHEMERIS_TYPE":0,"NORAD_CAT_ID":60394,"ELEMENT_SET_NO":999,"REV_AT_EPOCH":9586,"BSTAR":0.00013500182,"MEAN_MOTION_DOT":9.9e-7,"MEAN_MOTION_DDOT":0}]}
