QIANFAN-1               
1 60379U 24140A   26194.25407826  .00000095  00000+0  12922-3 0  9994
2 60379  88.9734 277.2279 0015764 326.6761  33.3396 13.51019924 96047
QIANFAN-2               
1 60380U 24140B   26194.28295206  .00000091  00000+0  12229-3 0  9992
2 60380  88.9720 277.0353 0010447 296.1274  63.8802 13.51015727 96102
QIANFAN-3               
1 60381U 24140C   26194.21708417  .00000093  00000+0  12496-3 0  9997
2 60381  88.9713 277.1586 0011774 311.0702  48.9432 13.51016726 96003
QIANFAN-4               
1 60382U 24140D   26194.26638525  .00000111  00000+0  15307-3 0  9990
2 60382  88.9738 277.1047 0010701 299.3179  60.6902 13.51019742 96136
QIANFAN-5               
1 60383U 24140E   26194.31581459  .00000071  00000+0  91382-4 0  9993
2 60383  88.9712 277.1730 0013303 323.2492  36.7746 13.51010375 96003
QIANFAN-6               
1 60384U 24140F   26194.26228223  .00000092  00000+0  12352-3 0  9997
2 60384  88.9739 276.9824 0010931 306.4360  53.5782 13.51018549 96193
QIANFAN-7               
1 60385U 24140G   26194.23915404  .00000313  00000+0  12036-3 0  9994
2 60385  88.9769 268.7141 0017221  67.2200 293.0811 14.27863471100716
QIANFAN-8               
1 60386U 24140H   26194.27055798  .00000092  00000+0  12444-3 0  9997
2 60386  88.9741 277.2218 0014424 307.8214  52.1631 13.51014961 96049
QIANFAN-9               
1 60387U 24140J   26194.24578515  .00000083  00000+0  11038-3 0  9990
2 60387  88.9738 277.2954 0014096 307.6736  52.3136 13.51020579 96027
QIANFAN-10              
1 60388U 24140K   26194.24990804  .00000105  00000+0  14379-3 0  9996
2 60388  88.9749 276.6643 0012323 281.3219  78.6547 13.51021791 96151
QIANFAN-11              
1 60389U 24140L   26194.28698165  .00000093  00000+0  12522-3 0  9990
2 60389  88.9674 277.0877 0012135 307.9125  52.0928 13.51015728 95819
QIANFAN-12              
1 60390U 24140M   26194.30762417  .00000091  00000+0  12228-3 0  9998
2 60390  88.9717 277.2216 0011141 317.9673  42.0622 13.51017943 95948
QIANFAN-13              
1 60391U 24140N   26194.27878171  .00000091  00000+0  12187-3 0  9994
2 60391  88.9729 277.3502 0011039 321.3397  38.6963 13.51017985 95966
QIANFAN-14              
1 60392U 24140P   26194.30353388  .00000097  00000+0  13120-3 0  9991
2 60392  88.9708 277.2003 0014699 319.3466  40.6587 13.51011520 95973
QIANFAN-15              
1 60393U 24140Q   26194.23763497  .00000083  00000+0  10992-3 0  9999
2 60393  88.9732 277.2141 0010207 305.2830  54.7365 13.51012002 95958
QIANFAN-16              
1 60394U 24140R   26194.22533725  .00000099  00000+0  13500-3 0  9993
2 60394  88.9735 277.3416 0012783 324.9461  35.0847 13.51019910 95869
